IXPE                    
1 49954U 21121A   24271.00001157  .00013312  00000+0  96961-3 0  9991
2 49954   0.2319 356.9809 0008970 352.7076 193.5035 15.00143393  5664
